start=new Date('%Y-%m-27T00:00:00.000Z').valueOf();
sats=[{"TIME_SYSTEM":"UTC","CLASSIFICATION_TYPE":"U","PERIAPSIS":"546.468","INCLINATION":"53.0548","OBJECT_NAME":"STARLINK-1588","MEAN_MOTION":"15.06396945","GP_ID":"183212753","PERIOD":"95.592","APOAPSIS":"547.978","OBJECT_ID":"2020-057B","TLE_LINE1":"1 46118U 20057B   21233.96356180  .00000411  00000-0  46469-4 0  9992","RA_OF_ASC_NODE":"211.9210","COUNTRY_CODE":"US","MEAN_MOTION_DDOT":"0.0000000000000","MEAN_ANOMALY":"307.9879","MEAN_MOTION_DOT":"0.00000411","REV_AT_EPOCH":"5703","RCS_SIZE":"LARGE","MEAN_ELEMENT_THEORY":"SGP4","FILE":"3101032","CENTER_NAME":"EARTH","REF_FRAME":"TEME","BSTAR":"0.00004646900000","EPOCH":"2021-08-21T23:07:31.739520","OBJECT_TYPE":"PAYLOAD","EPHEMERIS_TYPE":"0","LAUNCH_DATE":"2020-08-18","ECCENTRICITY":"0.00010900","SITE":"AFETR","NORAD_CAT_ID":"46118","SEMIMAJOR_AXIS":"6925.358","ELEMENT_SET_NO":"999","DECAY_DATE":null,"TLE_LINE2":"2 46118  53.0548 211.9210 0001090  52.1209 307.9879 15.06396945 57038","ARG_OF_PERICENTER":"52.1209"},{"EPHEMERIS_TYPE":"0","EPOCH":"2021-08-21T22:51:33.165216","OBJECT_TYPE":"PAYLOAD","BSTAR":"0.00005287100000","REF_FRAME":"TEME","CENTER_NAME":"EARTH","FILE":"3101032","RCS_SIZE":"LARGE","MEAN_ELEMENT_THEORY":"SGP4","MEAN_MOTION_DOT":"0.00000506","REV_AT_EPOCH":"5701","TLE_LINE2":"2 46119  53.0541 211.9627 0001100  58.7365 301.3732 15.06404004 57011","ARG_OF_PERICENTER":"58.7365","DECAY_DATE":null,"NORAD_CAT_ID":"46119","SEMIMAJOR_AXIS":"6925.336","ELEMENT_SET_NO":"999","ECCENTRICITY":"0.00011000","LAUNCH_DATE":"2020-08-18","SITE":"AFETR","MEAN_MOTION":"15.06404004","OBJECT_NAME":"STARLINK-1593","PERIAPSIS":"546.439","INCLINATION":"53.0541","CLASSIFICATION_TYPE":"U","TIME_SYSTEM":"UTC","MEAN_MOTION_DDOT":"0.0000000000000","MEAN_ANOMALY":"301.3732","COUNTRY_CODE":"US","RA_OF_ASC_NODE":"211.9627","TLE_LINE1":"1 46119U 20057C   21233.95246719  .00000506  00000-0  52871-4 0  9997","OBJECT_ID":"2020-057C","GP_ID":"183212502","APOAPSIS":"547.963","PERIOD":"95.592"},{"REF_FRAME":"TEME","BSTAR":"0.00005680000000","OBJECT_TYPE":"PAYLOAD","EPOCH":"2021-08-21T22:30:21.124800","EPHEMERIS_TYPE":"0","REV_AT_EPOCH":"5703","MEAN_MOTION_DOT":"0.00000565","MEAN_ELEMENT_THEORY":"SGP4","RCS_SIZE":"LARGE","FILE":"3101032","CENTER_NAME":"EARTH","DECAY_DATE":null,"ARG_OF_PERICENTER":"41.6550","TLE_LINE2":"2 46120  53.0536 212.0300 0000969  41.6550 318.4513 15.06393537 57032","SITE":"AFETR","ECCENTRICITY":"0.00009690","LAUNCH_DATE":"2020-08-18","ELEMENT_SET_NO":"999","SEMIMAJOR_AXIS":"6925.368","NORAD_CAT_ID":"46120","INCLINATION":"53.0536","PERIAPSIS":"546.562","OBJECT_NAME":"STARLINK-1601","MEAN_MOTION":"15.06393537","TIME_SYSTEM":"UTC","CLASSIFICATION_TYPE":"U","TLE_LINE1":"1 46120U 20057D   21233.93774450  .00000565  00000-0  56800-4 0  9996","RA_OF_ASC_NODE":"212.0300","COUNTRY_CODE":"US","MEAN_MOTION_DDOT":"0.0000000000000","MEAN_ANOMALY":"318.4513","PERIOD":"95.593","APOAPSIS":"547.904","GP_ID":"183213741","OBJECT_ID":"2020-057D"},{"MEAN_ANOMALY":"298.3062","MEAN_MOTION_DDOT":"0.0000000000000","COUNTRY_CODE":"US","RA_OF_ASC_NODE":"192.1713","TLE_LINE1":"1 46121U 20057E   21233.90640448 -.00000461  00000-0 -12037-4 0  9994","OBJECT_ID":"2020-057E","GP_ID":"183213758","PERIOD":"95.592","APOAPSIS":"548.042","MEAN_MOTION":"15.06400457","OBJECT_NAME":"STARLINK-1602","PERIAPSIS":"546.383","INCLINATION":"53.0541","CLASSIFICATION_TYPE":"U","TIME_SYSTEM":"UTC","TLE_LINE2":"2 46121  53.0541 192.1713 0001198  61.8048 298.3062 15.06400457 56029","ARG_OF_PERICENTER":"61.8048","DECAY_DATE":null,"SEMIMAJOR_AXIS":"6925.347","NORAD_CAT_ID":"46121","ELEMENT_SET_NO":"999","LAUNCH_DATE":"2020-08-18","ECCENTRICITY":"0.00011980","SITE":"AFETR","EPHEMERIS_TYPE":"0","EPOCH":"2021-08-21T21:45:13.347072","OBJECT_TYPE":"PAYLOAD","BSTAR":"-0.00001203700000","REF_FRAME":"TEME","CENTER_NAME":"EARTH","FILE":"3101032","RCS_SIZE":"LARGE","MEAN_ELEMENT_THEORY":"SGP4","MEAN_MOTION_DOT":"-0.00000461","REV_AT_EPOCH":"5602"},{"ARG_OF_PERICENTER":"48.4442","TLE_LINE2":"2 46122  53.0535 172.1286 0001602  48.4442 311.6684 15.06393210 57562","DECAY_DATE":null,"ELEMENT_SET_NO":"999","SEMIMAJOR_AXIS":"6925.369","NORAD_CAT_ID":"46122","SITE":"AFETR","LAUNCH_DATE":"2020-08-18","ECCENTRICITY":"0.00016020","EPHEMERIS_TYPE":"0","OBJECT_TYPE":"PAYLOAD","EPOCH":"2021-08-21T21:58:28.798176","BSTAR":"-0.00010592000000","REF_FRAME":"TEME","CENTER_NAME":"EARTH","FILE":"3101032","MEAN_ELEMENT_THEORY":"SGP4","RCS_SIZE":"LARGE","REV_AT_EPOCH":"5756","MEAN_MOTION_DOT":"-0.00001859","MEAN_MOTION_DDOT":"0.0000000000000","MEAN_ANOMALY":"311.6684","COUNTRY_CODE":"US","RA_OF_ASC_NODE":"172.1286","TLE_LINE1":"1 46122U 20057F   21233.91561109 -.00001859  00000-0 -10592-3 0  9997","OBJECT_ID":"2020-057F","APOAPSIS":"548.344","PERIOD":"95.593","GP_ID":"183212253","MEAN_MOTION":"15.06393210","OBJECT_NAME":"STARLINK-1604","INCLINATION":"53.0535","PERIAPSIS":"546.125","CLASSIFICATION_TYPE":"U","TIME_SYSTEM":"UTC"},{"OBJECT_ID":"2020-057G","GP_ID":"183213003","PERIOD":"95.592","APOAPSIS":"548.383","RA_OF_ASC_NODE":"172.1940","TLE_LINE1":"1 46123U 20057G   21233.90086655  .00000984  00000-0  84974-4 0  9997","MEAN_MOTION_DDOT":"0.0000000000000","MEAN_ANOMALY":"298.4374","COUNTRY_CODE":"US","CLASSIFICATION_TYPE":"U","TIME_SYSTEM":"UTC","PERIAPSIS":"546.011","INCLINATION":"53.0541","MEAN_MOTION":"15.06405394","OBJECT_NAME":"STARLINK-1605","NORAD_CAT_ID":"46123","SEMIMAJOR_AXIS":"6925.332","ELEMENT_SET_NO":"999","ECCENTRICITY":"0.00017130","LAUNCH_DATE":"2020-08-18","SITE":"AFETR","DECAY_DATE":null,"TLE_LINE2":"2 46123  53.0541 172.1940 0001713  61.6787 298.4374 15.06405394 57586","ARG_OF_PERICENTER":"61.6787","RCS_SIZE":"LARGE","MEAN_ELEMENT_THEORY":"SGP4","MEAN_MOTION_DOT":"0.00000984","REV_AT_EPOCH":"5758","CENTER_NAME":"EARTH","FILE":"3101032","BSTAR":"0.00008497400000","REF_FRAME":"TEME","EPHEMERIS_TYPE":"0","EPOCH":"2021-08-21T21:37:14.869920","OBJECT_TYPE":"PAYLOAD"},{"REF_FRAME":"TEME","BSTAR":"0.00013771000000","EPOCH":"2021-08-21T13:50:10.236768","OBJECT_TYPE":"PAYLOAD","EPHEMERIS_TYPE":"0","MEAN_MOTION_DOT":"0.00001770","REV_AT_EPOCH":"5626","RCS_SIZE":"LARGE","MEAN_ELEMENT_THEORY":"SGP4","FILE":"3101032","CENTER_NAME":"EARTH","DECAY_DATE":null,"TLE_LINE2":"2 46124  53.0547 173.6505 0001647  46.3524 313.7602 15.06404135 56262","ARG_OF_PERICENTER":"46.3524","ECCENTRICITY":"0.00016470","LAUNCH_DATE":"2020-08-18","SITE":"AFETR","SEMIMAJOR_AXIS":"6925.336","NORAD_CAT_ID":"46124","ELEMENT_SET_NO":"999","PERIAPSIS":"546.060","INCLINATION":"53.0547","OBJECT_NAME":"STARLINK-1614","MEAN_MOTION":"15.06404135","TIME_SYSTEM":"UTC","CLASSIFICATION_TYPE":"U","TLE_LINE1":"1 46124U 20057H   21233.57650737  .00001770  00000-0  13771-3 0  9999","RA_OF_ASC_NODE":"173.6505","COUNTRY_CODE":"US","MEAN_MOTION_DDOT":"0.0000000000000","MEAN_ANOMALY":"313.7602","GP_ID":"183213241","PERIOD":"95.592","APOAPSIS":"548.341","OBJECT_ID":"2020-057H"},{"COUNTRY_CODE":"US","MEAN_ANOMALY":"320.4109","MEAN_MOTION_DDOT":"0.0000000000000","TLE_LINE1":"1 46125U 20057J   21233.95619182  .00000457  00000-0  49599-4 0  9990","RA_OF_ASC_NODE":"211.9500","GP_ID":"183213258","APOAPSIS":"547.798","PERIOD":"95.593","OBJECT_ID":"2020-057J","OBJECT_NAME":"STARLINK-1618","MEAN_MOTION":"15.06391213","PERIAPSIS":"546.683","INCLINATION":"53.0524","TIME_SYSTEM":"UTC","CLASSIFICATION_TYPE":"U","TLE_LINE2":"2 46125  53.0524 211.9500 0000805  39.6939 320.4109 15.06391213 57012","ARG_OF_PERICENTER":"39.6939","DECAY_DATE":null,"ECCENTRICITY":"0.00008050","LAUNCH_DATE":"2020-08-18","SITE":"AFETR","SEMIMAJOR_AXIS":"6925.375","NORAD_CAT_ID":"46125","ELEMENT_SET_NO":"999","EPOCH":"2021-08-21T22:56:54.973248","OBJECT_TYPE":"PAYLOAD","EPHEMERIS_TYPE":"0","REF_FRAME":"TEME","BSTAR":"0.00004959900000","FILE":"3101032","CENTER_NAME":"EARTH","MEAN_MOTION_DOT":"0.00000457","REV_AT_EPOCH":"5701","RCS_SIZE":"LARGE","MEAN_ELEMENT_THEORY":"SGP4"},{"REF_FRAME":"TEME","BSTAR":"0.00005036300000","EPOCH":"2021-08-21T15:57:33.725088","OBJECT_TYPE":"PAYLOAD","EPHEMERIS_TYPE":"0","MEAN_MOTION_DOT":"0.00000469","REV_AT_EPOCH":"5571","RCS_SIZE":"LARGE","MEAN_ELEMENT_THEORY":"SGP4","FILE":"3101032","CENTER_NAME":"EARTH","DECAY_DATE":null,"TLE_LINE2":"2 46126  53.0547 213.0651 0000956  39.7924 320.3135 15.06408020 55718","ARG_OF_PERICENTER":"39.7924","ECCENTRICITY":"0.00009560","LAUNCH_DATE":"2020-08-18","SITE":"AFETR","NORAD_CAT_ID":"46126","SEMIMAJOR_AXIS":"6925.324","ELEMENT_SET_NO":"999","PERIAPSIS":"546.527","INCLINATION":"53.0547","OBJECT_NAME":"STARLINK-1619","MEAN_MOTION":"15.06408020","TIME_SYSTEM":"UTC","CLASSIFICATION_TYPE":"U","TLE_LINE1":"1 46126U 20057K   21233.66497367  .00000469  00000-0  50363-4 0  9992","RA_OF_ASC_NODE":"213.0651","COUNTRY_CODE":"US","MEAN_ANOMALY":"320.3135","MEAN_MOTION_DDOT":"0.0000000000000","GP_ID":"183212754","APOAPSIS":"547.851","PERIOD":"95.592","OBJECT_ID":"2020-057K"},{"OBJECT_ID":"2020-057L","GP_ID":"183212503","APOAPSIS":"548.056","PERIOD":"95.592","MEAN_MOTION_DDOT":"0.0000000000000","MEAN_ANOMALY":"307.5830","COUNTRY_CODE":"US","RA_OF_ASC_NODE":"193.5932","TLE_LINE1":"1 46127U 20057L   21233.58943787  .00000865  00000-0  76921-4 0  9994","CLASSIFICATION_TYPE":"U","TIME_SYSTEM":"UTC","MEAN_MOTION":"15.06399627","OBJECT_NAME":"STARLINK-1621","PERIAPSIS":"546.373","INCLINATION":"53.0555","SEMIMAJOR_AXIS":"6925.350","NORAD_CAT_ID":"46127","ELEMENT_SET_NO":"999","ECCENTRICITY":"0.00012150","LAUNCH_DATE":"2020-08-18","SITE":"AFETR","TLE_LINE2":"2 46127  53.0555 193.5932 0001215  52.5269 307.5830 15.06399627 55975","ARG_OF_PERICENTER":"52.5269","DECAY_DATE":null,"CENTER_NAME":"EARTH","FILE":"3101032","RCS_SIZE":"LARGE","MEAN_ELEMENT_THEORY":"SGP4","MEAN_MOTION_DOT":"0.00000865","REV_AT_EPOCH":"5597","EPHEMERIS_TYPE":"0","EPOCH":"2021-08-21T14:08:47.431968","OBJECT_TYPE":"PAYLOAD","BSTAR":"0.00007692100000","REF_FRAME":"TEME"}];
